{"fetched_at":"2026-03-30T13:17:50Z","count":15418,"tles":[{"name":"STARLINK-36169","line1":"1 66929U 25286E   26087.91300131  .00041654  00000+0  14104-2 0  9997","line2":"2 66929  53.1579 268.8997 0001324  78.9210 281.1940 15.30205826 18365","category":"Starlink"}]}